#aV2023  7 19  0  0  0.00000000     288 DD+AD WGS84 FIT  NGA
## 2271 259200.00000000   300.00000000 60144 0.0000000000000
+   32     1  2  3  4  5  6  7  8  9 10 11 12 13 14 15 16 17
+         18 19 20 21 22 23 24 25 26 27 28 29 30 31 32  0  0
+          0  0  0  0  0  0  0  0  0  0  0  0  0  0  0  0  0
+          0  0  0  0  0  0  0  0  0  0  0  0  0  0  0  0  0
+          0  0  0  0  0  0  0  0  0  0  0  0  0  0  0  0  0
++         2  2  2  2  2  2  2  2  2  2  2  2  2  2  2  2  2
++         2  2  2  2  2  2  2  2  2  2  2  2  2  2  2  0  0
++         0  0  0  0  0  0  0  0  0  0  0  0  0  0  0  0  0
++         0  0  0  0  0  0  0  0  0  0  0  0  0  0  0  0  0
++         0  0  0  0  0  0  0  0  0  0  0  0  0  0  0  0  0
%c cc cc ccc ccc cccc cccc cccc cccc ccccc ccccc ccccc ccccc
%c cc cc ccc ccc cccc cccc cccc cccc ccccc ccccc ccccc ccccc
%f  0.0000000  0.000000000  0.00000000000  0.000000000000000
%f  0.0000000  0.000000000  0.00000000000  0.000000000000000
%i    0    0    0    0      0      0      0      0         0
%i    0    0    0    0      0      0      0      0         0
/*      NGA, ST. LOUIS,MO.                                  
/*   EPHEMERIS COMPUTED FROM 2 DAYS OF DATA                 
/*   EPOCHA v8 SMOOTHER                                     
/*   G2139 IERS2010 SATIGS SATAPC                           
*  2023  7 19  8 25  0.00000000
P  1  13661.359758 -21922.321789  -5676.099689    172.302829                    
V  1   5971.969184  -3871.730445  31534.474613     -0.018267                    
P  2  16352.285616 -20720.275460   2521.883178   -574.640269                    
V  2    753.675999   3676.507594  31792.595117      0.038896                    
P  3   8325.620050 -13294.527410 -21555.605593   -226.264141                    
V  3  26562.964656   4883.588179   7409.072718      0.162121                    
P  4   2494.317117 -22469.858558 -13834.475929    100.048842                    
V  4   7771.431200  15972.992474 -24635.826596      0.109421                    
P  5 -22791.365705   5875.221215  12234.927097   -135.462037                    
V  5 -15422.198365  -3937.306079 -26337.431170     -0.014677                    
P  6 -14576.228265  -4734.917292 -21647.005870    576.477369                    
V  6  17315.824029 -21407.891116  -6867.060358     -0.037746                    
P  7    -58.299214 -19965.270826  17744.366318    120.833303                    
V  7  15371.290291 -15634.358710 -18499.562451     -0.109949                    
P  8  10110.358075 -13269.121785  20503.868566   -132.943246                    
V  8  11086.317589  23886.340370  10342.077054     -0.019575                    
P  9  -6021.720957 -25254.345122  -5566.937772   -108.547790                    
V  9   5294.203780   5389.471378 -30634.949574      0.093867                    
P 10  21462.504581  11223.674101  11439.863240    -45.747415                    
V 10 -14192.724705   -633.464063  27372.685264     -0.014969                    
P 11 -20863.929506   8904.196994 -13768.997800   -282.413311                    
V 11  10158.021007 -14415.489364 -24739.707950     -0.163529                    
P 12 -12750.483822  11578.782796 -20472.492521   -402.489540                    
V 12 -24500.239566  -6740.333334  11679.075386     -0.046091                    
P 13 -14228.417599   4615.472307  21756.242047    549.049224                    
V 13  -6474.111897 -27290.187396   1748.755340      0.049403                    
P 14 -18705.602168 -13417.827116  13407.038482    126.980193                    
V 14  17108.425744    854.512670  24598.704082      0.119762                    
P 15  -8187.548930  15231.404452  19628.077808     59.418824                    
V 15 -14003.542992 -22108.068050  11305.976998      0.035630                    
P 16  25158.678259     31.383794   8884.393784   -479.024802                    
V 16  10679.372966   4967.037918 -28811.623570      0.044763                    
P 17 -13477.847716 -20260.822121 -10079.879010    721.251165                    
V 17  -1774.582910 -13535.941684  28478.763665      0.007628                    
P 18   1547.328942  18297.415201  19125.699168   -351.041228                    
V 18 -16672.741054  17738.450441 -15781.938532     -0.141070                    
P 19 -15466.224039 -14226.433583 -16651.385492    345.898039                    
V 19  -3938.141834 -20245.756575  20914.003568      0.051318                    
P 20 -26295.493055   1865.629844   2280.463546    421.880864                    
V 20  -2904.177600  -3305.399173 -31441.861690     -0.020578                    
P 21  17342.814356 -18876.229161   5352.762721    151.973077                    
V 21   -737.803043   7108.902756  31362.839215     -0.004678                    
P 22  16015.006472  10833.423816 -17826.395914    514.889789                    
V 22   4972.403192  23012.452217  17846.995217      0.054540                    
P 23  10348.351819  14760.546195  19565.020446     44.915496                    
V 23 -24661.510076  -2255.312237  14589.939579      0.042259                    
P 24 -14511.497705  21967.479284   -374.931047   -262.583852                    
V 24  -3386.964464  -2221.338161  31408.748734     -0.122142                    
P 25   1972.293044  15816.903021 -21588.102295    457.019018                    
V 25 -26436.656103  -3587.259087  -4856.405631      0.023210                    
P 26  26233.616013   4478.948843  -2809.366955    236.000093                    
V 26  -3695.840014   3025.783360 -30643.147687     -0.011985                    
P 27  15568.483917   -464.079227  21313.535110     -6.050411                    
V 27   9587.433022  25862.351304  -5966.645394     -0.075127                    
P 28  13910.880595   6673.110076 -21639.829092     81.945260                    
V 28 -16321.931394  22045.915138  -3699.525587     -0.016605                    
P 29   2899.026230  25525.961799  -6588.136655   -605.861021                    
V 29  -4558.402957  -7313.448280 -30680.242775     -0.009560                    
P 30  -8667.513988 -13858.375248  21021.048686   -503.181340                    
V 30  17557.946387 -19935.014413  -6200.207191      0.028185                    
P 31  19877.461480  -4175.633075 -17506.349176   -220.328560                    
V 31 -12958.655442  17526.856808 -18669.063530     -0.007031                    
P 32  15948.452859  17409.940590 -12180.425047   -524.067928                    
V 32   3604.823763  15425.316177  26180.407404     -0.075517                    
EOF
